OBJECT_NAME,OBJECT_ID,EPOCH,MEAN_MOTION,ECCENTRICITY,INCLINATION,RA_OF_ASC_NODE,ARG_OF_PERICENTER,MEAN_ANOMALY,EPHEMERIS_TYPE,CLASSIFICATION_TYPE,NORAD_CAT_ID,ELEMENT_SET_NO,REV_AT_EPOCH,BSTAR,MEAN_MOTION_DOT,MEAN_MOTION_DDOT
GSAT-17,2017-040B,2026-06-11T08:33:10.933920,1.00270654,.0001601,0.1114,88.0254,207.2283,186.2546,0,U,42815,999,3273,0,-.241E-5,0
INTELSAT 35E (IS-35E),2017-041A,2026-06-11T16:30:10.964160,1.00268855,.0001539,0.0257,337.8415,98.2517,36.9969,0,U,42818,999,3276,0,0,0
COSMOS 2520,2017-046A,2026-06-10T13:30:18.257184,1.00271321,.00010538,0.0454,86.1390,55.6369,4.7331,0,U,42907,999,3233,0,.154E-5,0
TDRS 13,2017-047A,2026-06-11T16:36:47.828736,1.00271572,.0014484,3.4502,2.5853,105.9685,29.2434,0,U,42915,999,3229,0,-.86E-6,0
QZS-3 (MICHIBIKI-3),2017-048A,2026-06-11T17:16:17.169024,1.00265599,.0002425,0.0267,190.4960,259.5255,196.0941,0,U,42917,999,3220,0,0,0
AMAZONAS 5,2017-053A,2026-06-09T07:54:55.355040,1.00270254,.00024128,0.0312,323.9850,64.7103,286.7531,0,U,42934,999,3196,0,-.266E-5,0
ASIASAT 9,2017-057A,2026-06-11T06:58:56.063424,1.00264399,.0002539,0.0386,44.0626,23.3223,59.1383,0,U,42942,999,3180,0,0,0
INTELSAT 37E (IS-37E),2017-059A,2026-06-11T06:18:55.621728,1.00269936,.0002382,0.0178,11.8435,91.1558,233.3384,0,U,42950,999,3200,0,-.124E-5,0
BSAT-4A,2017-059B,2026-06-09T00:10:15.784896,1.00272912,.0004164,0.0365,6.7991,58.5529,304.4340,0,U,42951,999,3171,0,-.334E-5,0
QZS-4 (MICHIBIKI-4),2017-062A,2026-06-11T08:43:46.488864,1.00252284,.07452,40.1116,343.5575,271.6390,272.9173,0,U,42965,999,3174,0,-.318E-5,0
SES-11 (ECHOSTAR 105),2017-063A,2026-06-09T16:15:41.654016,1.00270770,.00026793,0.0151,352.2876,98.2971,306.4353,0,U,42967,999,3164,0,-.72E-6,0
KOREASAT 5A,2017-067A,2026-06-11T17:12:17.550720,1.00269462,.0000459,0.0088,318.2005,142.2794,170.8014,0,U,42984,999,3147,0,-.341E-5,0
ALCOMSAT 1,2017-078A,2026-06-11T16:32:55.701312,1.00271794,.000221,0.0422,75.9720,0.2243,47.2818,0,U,43039,999,3124,0,-.169E-5,0
SBIRS GEO-3 (USA 282),2018-009A,2026-06-11T15:54:36.873792,1.00271568,.000192,2.1802,11.8163,64.1972,263.2499,0,U,43162,999,3078,0,.143E-5,0
AL YAH 3,2018-012A,2026-06-11T16:34:18.069024,1.00270600,.0003952,1.5369,83.1715,357.4271,47.9124,0,U,43174,999,3079,0,-.14E-5,0
SES-14,2018-012B,2026-06-09T11:24:01.053216,1.00270313,.00010572,0.0220,31.0141,53.8990,296.4420,0,U,43175,999,694,0,-.261E-5,0
GOES 17,2018-022A,2026-06-11T14:31:54.100992,1.00270815,.0000476,0.9223,85.8105,24.8484,277.7766,0,U,43226,999,3036,0,-.166E-5,0
HISPASAT 30W-6,2018-023A,2026-06-09T04:38:24.091296,1.00270107,.0006065,0.0466,43.0702,24.4046,229.6971,0,U,43228,999,3032,0,-.199E-5,0
SUPERBIRD-B3,2018-033A,2026-06-11T15:17:38.524416,1.00270502,.0001202,0.0114,311.5386,156.5456,183.3059,0,U,43271,999,3000,0,-.76E-6,0
HYLAS 4,2018-033B,2026-06-10T19:58:35.052960,1.00270681,.0001184,0.0188,59.6501,20.7984,84.9113,0,U,43272,999,3000,0,-.216E-5,0
IRNSS-1I,2018-035A,2026-06-10T23:58:16.872960,1.00270739,.00178781,28.7398,74.2932,181.9830,57.5112,0,U,43286,999,3001,0,.84E-6,0
USA 283,2018-036A,2026-06-10T10:28:38.701920,1.00269147,.000013,0.0149,323.1993,214.6638,12.1871,0,U,43339,999,2522,0,0,0
COSMOS 2526,2018-037A,2026-06-11T00:09:56.689632,1.00278103,.0000807,0.0303,76.5937,95.3826,217.9413,0,U,43432,999,2989,0,-.327E-5,0
APSTAR-6C,2018-041A,2026-06-11T18:17:29.029056,1.00271413,.0001092,0.0236,342.5736,4.2669,321.6522,0,U,43450,999,2975,0,-.301E-5,0
BANGABANDHUSAT-1,2018-044A,2026-06-11T16:14:27.515040,1.00267647,.0001682,0.0190,5.3701,79.9183,177.4299,0,U,43463,999,2965,0,0,0
SES-12,2018-049A,2026-06-11T11:59:11.506272,1.00272457,.0001002,0.0231,34.3989,267.7443,232.5099,0,U,43488,999,2936,0,-.253E-5,0
FENGYUN 2H,2018-050A,2026-06-11T18:39:57.631104,1.00270461,.0001797,3.0160,79.1414,130.4479,49.9576,0,U,43491,999,2938,0,-.115E-5,0
BEIDOU-2 IGSO-7,2018-057A,2026-06-10T23:53:30.375744,1.00253023,.01048473,55.1937,163.1120,237.9272,327.1184,0,U,43539,999,2906,0,.4E-6,0
TELSTAR 19V,2018-059A,2026-06-09T01:05:04.975008,1.00255741,.00032288,0.0357,175.1217,305.1580,90.4046,0,U,43562,999,2906,0,-.262E-5,0
TELKOM 4 (MERAH PUTIH),2018-064A,2026-06-11T17:32:50.266176,1.00267460,.0001308,0.0208,10.0284,108.2788,152.9623,0,U,43587,999,2882,0,0,0
TELSTAR 18V,2018-069A,2026-06-11T18:00:16.277760,1.00269330,.0001676,0.0124,303.0460,136.7241,228.3948,0,U,43611,999,2858,0,-.277E-5,0
AZERSPACE 2 (IS-38),2018-074A,2026-06-11T03:11:40.360992,1.00271976,.00011981,0.0036,69.3548,12.8510,270.3100,0,U,43632,999,2838,0,.154E-5,0
